[{"OBJECT_NAME":"STARLINK-5631","OBJECT_ID":"2023-013R","EPOCH":"2026-03-08T23:45:53.991936","MEAN_MOTION":15.02527015,"ECCENTRICITY":0.00014588,"INCLINATION":43.0022,"RA_OF_ASC_NODE":304.182,"ARG_OF_PERICENTER":265.7976,"MEAN_ANOMALY":94.27,"EPHEMERIS_TYPE":0,"CLASSIFICATION_TYPE":"U","NORAD_CAT_ID":55346,"ELEMENT_SET_NO":999,"REV_AT_EPOCH":17160,"BSTAR":-0.00010228219,"MEAN_MOTION_DOT":-1.585e-5,"MEAN_MOTION_DDOT":0},{"OBJECT_NAME":"CZ-2C DEB","OBJECT_ID":"2011-030F","EPOCH":"2026-03-09T18:15:45.395712","MEAN_MOTION":15.09717889,"ECCENTRICITY":0.00353547,"INCLINATION":98.459,"RA_OF_ASC_NODE":350.9929,"ARG_OF_PERICENTER":109.3287,"MEAN_ANOMALY":305.6279,"EPHEMERIS_TYPE":0,"CLASSIFICATION_TYPE":"U","NORAD_CAT_ID":37735,"ELEMENT_SET_NO":999,"REV_AT_EPOCH":78307,"BSTAR":0.0021378399,"MEAN_MOTION_DOT":0.00035046,"MEAN_MOTION_DDOT":0}]
